QIANFAN-41              
1 62242U 24232F   25355.57575422  .00000096  00000+0  12966-3 0  9997
2 62242  89.0016  40.3059 0014948 158.9434 201.2336 13.50979857100443
QIANFAN-42              
1 62243U 24232G   25355.55342868  .00000289  00000+0  11821-3 0  9995
2 62243  89.0006  36.3505 0016846  61.0914 299.1966 14.24492953102626
QIANFAN-43              
1 62244U 24232H   25355.57159874  .00000105  00000+0  14449-3 0  9997
2 62244  89.0020  40.3721 0016291 164.5249 195.6404 13.50978764 69055
QIANFAN-44              
1 62245U 24232J   25355.55929528  .00000090  00000+0  12088-3 0  9997
2 62245  89.0019  40.1840 0014604 160.9738 199.1962 13.50980958100527
QIANFAN-45              
1 62246U 24232K   25355.60043408  .00000096  00000+0  13015-3 0  9995
2 62246  89.0022  40.3267 0015274 160.8372 199.3357 13.50976944100456
QIANFAN-46              
1 62247U 24232L   25355.55103738  .00000092  00000+0  12384-3 0  9997
2 62247  89.0018  40.4003 0015143 166.2098 193.9470 13.50978810100406
QIANFAN-47              
1 62248U 24232M   25355.55519314  .00000098  00000+0  13252-3 0  9990
2 62248  89.0014  40.3325 0015602 165.5708 194.5892 13.50979100100430
QIANFAN-48              
1 62249U 24232N   25355.59219754  .00000080  00000+0  10495-3 0  9997
2 62249  89.0018  40.3309 0017769 168.8603 191.2945 13.50980792100446
